OBJECT_NAME,OBJECT_ID,EPOCH,MEAN_MOTION,ECCENTRICITY,INCLINATION,RA_OF_ASC_NODE,ARG_OF_PERICENTER,MEAN_ANOMALY,EPHEMERIS_TYPE,CLASSIFICATION_TYPE,NORAD_CAT_ID,ELEMENT_SET_NO,REV_AT_EPOCH,BSTAR,MEAN_MOTION_DOT,MEAN_MOTION_DDOT
SUOMI NPP,2011-061A,2026-06-12T19:54:23.093280,14.19516560,.0001775,98.7954,104.7353,16.6889,343.4345,0,U,37849,999,75782,.43507E-4,.47E-6,0
YAOGAN-12,2011-066B,2026-06-12T20:58:34.687776,15.26550946,.000828,97.1152,202.6445,234.2805,125.7665,0,U,37875,999,81138,.2287E-3,.5915E-4,0
BEIDOU-2 M4,2012-018B,2026-06-12T06:55:12.482688,1.86229638,.0011272,55.6629,304.2553,276.3226,83.5311,0,U,38251,999,9585,0,-.68E-6,0
ARIRANG-3 (KOMPSAT-3),2012-025B,2026-06-12T20:36:09.120096,14.62202690,.0006519,98.1175,121.3931,120.3589,239.8258,0,U,38338,999,75071,.8784E-4,.396E-5,0
HORYU-2,2012-025D,2026-06-11T14:27:09.572832,14.91035772,.0007857,98.2166,295.3107,191.6042,168.4995,0,U,38340,999,74789,.29547E-3,.2864E-4,0
CSSWE,2012-048D,2026-06-12T05:47:20.870592,15.44226784,.00478694,64.6616,110.2430,175.2937,184.8662,0,U,38761,999,11563,.59390873E-3,.28486E-3,0
CP5,2012-048F,2026-06-12T05:21:32.583456,15.27655013,.00792158,64.6428,168.9913,177.9064,182.2413,0,U,38763,999,11600,.36463808E-3,.10646E-3,0
METOP-B,2012-049A,2026-06-12T21:29:53.042784,14.21431594,.0002496,98.6505,215.4804,30.0317,330.1003,0,U,38771,999,71265,.63386E-4,.95E-6,0
SJ-9A,2012-056A,2026-06-12T20:28:55.045632,14.85471597,.0023964,97.6706,135.9617,271.9006,87.9465,0,U,38860,999,69894,.14421E-3,.1197E-4,0
COSMOS 2484 (RODNIK-S 6),2013-001C,2026-06-12T21:07:05.077632,12.42938629,.0027049,82.5023,224.5701,45.7977,314.5318,0,U,39059,999,60802,-.31239E-3,-.33E-6,0
SARAL,2013-009A,2026-06-12T20:25:32.458368,14.32854901,.0000937,98.5556,350.4733,334.6734,25.4404,0,U,39086,999,69498,.47689E-4,.86E-6,0
AAUSAT 3,2013-009B,2026-06-12T05:55:41.606112,14.39933834,.0010482,98.3701,347.1536,222.3126,137.7255,0,U,39087,999,69646,.20893868E-3,.615E-5,0
STRAND-1,2013-009E,2026-06-12T06:03:01.536768,14.37160588,.00075292,98.3921,343.6080,242.0462,117.9963,0,U,39090,999,69635,.10584582E-3,.272E-5,0
BRITE-AUSTRIA,2013-009F,2026-06-12T19:40:53.353344,14.36540476,.0009016,98.3993,343.3639,251.2113,108.8095,0,U,39091,999,69642,.69818E-4,.162E-5,0
UNIBRITE,2013-009G,2026-06-12T18:17:40.681824,14.36411745,.0007956,98.4031,343.4175,247.1559,112.8788,0,U,39092,999,69635,.75967E-4,.18E-5,0
AIST-2 (RS43),2013-015D,2026-06-12T20:47:57.573312,15.26259732,.0018906,64.8694,271.4590,246.8977,113.0161,0,U,39133,999,72324,.25017E-3,.6337E-4,0
NEE-01 PEGASO,2013-018B,2026-06-11T08:53:19.823712,14.93633706,.0012644,98.1214,306.3290,177.4473,182.6812,0,U,39151,999,70983,.17424E-3,.1781E-4,0
TURKSAT-3USAT,2013-018C,2026-06-12T19:14:26.676096,14.96403001,.0013624,97.7932,254.6447,113.2655,247.0002,0,U,39152,999,71043,.37336E-3,.418E-4,0
CUBEBUG-1 (CAPITAN BETO),2013-018D,2026-06-12T03:44:42.426240,14.97271312,.0011744,98.1656,322.8738,160.3673,199.8002,0,U,39153,999,71031,.24942996E-3,.283E-4,0
PROBA-V,2013-021A,2026-06-12T19:57:46.118592,14.23596192,.0004976,98.3582,142.6534,133.8058,226.3534,0,U,39159,999,68049,.46614E-4,.65E-6,0
ESTCUBE 1,2013-021C,2026-06-12T03:05:28.457376,14.81385291,.00090272,97.7295,217.4917,40.6214,319.5671,0,U,39161,999,70427,.17537137E-3,.1321E-4,0
ARIRANG-5 (KOMPSAT-5),2013-042A,2026-06-12T20:13:53.480640,15.04481391,.0004976,97.6214,350.6054,131.3525,228.8130,0,U,39227,999,70320,.11855E-3,.1598E-4,0
GONETS-M 5,2013-048A,2026-06-12T20:21:57.345696,12.42891786,.0015908,82.4833,346.0884,220.3646,139.6254,0,U,39249,999,57834,.36002E-3,.6E-6,0
GONETS-M 7,2013-048C,2026-06-12T21:24:38.527776,12.42914697,.0016709,82.4900,348.9813,221.6426,138.3383,0,U,39251,999,57830,.46152E-3,.74E-6,0
FENGYUN 3C,2013-052A,2026-06-12T20:58:40.276128,14.15754202,.0015457,98.4985,137.9470,39.5037,320.7262,0,U,39260,999,65795,.58087E-4,.73E-6,0
CASSIOPE,2013-055A,2026-06-12T19:57:27.688608,15.24789163,.0294374,80.9150,72.0085,77.0671,286.3260,0,U,39265,999,66700,.53048E-3,.4839E-3,-.45205E-6
APRIZESAT 7,2013-066A,2026-06-12T20:39:05.624928,14.91555442,.003467,97.7708,117.1426,223.9352,135.9109,0,U,39416,999,68058,.93384E-4,.888E-5,0
ZACUBE-1 (TSHEPISOSAT),2013-066B,2026-06-12T20:59:32.937792,15.01164573,.0040346,97.8083,126.1882,262.7759,96.8878,0,U,39417,999,68008,.28323E-3,.3629E-4,0
APRIZESAT 8,2013-066K,2026-06-12T20:04:52.957920,14.87645103,.0044593,97.8221,111.3653,301.3371,58.3485,0,U,39425,999,67902,.10788E-3,.941E-5,0
