{"_default": { "26": {"norad_id": "39417", "name": "ZACUBE", "tle1": "1 39417U 13066B   26163.87468678  .00003629  00000-0  28323-3 0  9993", "tle2": "2 39417  97.8083 126.1882 0040346 262.7759  96.8878 15.01164573680085", "object_type": "PAYLOAD", "criticality_score": 9.0, "last_updated": "2026-06-13T11:16:06.819600+00:00", "maneuver_count": 0, "owner": "SAFR"}, "27": {"norad_id": "39161", "name": "ESTCube-1", "tle1": "1 39161U 13021C   26163.12880159  .00001321  00000-0  17537-3 0  9992", "tle2": "2 39161  97.7295 217.4917 0009027  40.6214 319.5671 14.81385291704271", "object_type": "PAYLOAD", "criticality_score": 9.0, "last_updated": "2026-06-13T11:16:06.819600+00:00", "maneuver_count": 0, "owner": "EST"}, "28": {"norad_id": "39153", "name": "CUBEBUG-1", "tle1": "1 39153U 13018D   26163.15604660  .00002830  00000-0  24943-3 0  9998", "tle2": "2 39153  98.1656 322.8738 0011744 160.3673 199.8002 14.97271312710312", "object_type": "PAYLOAD", "criticality_score": 9.0, "last_updated": "2026-06-13T11:16:06.819600+00:00", "maneuver_count": 0, "owner": "ARGN"}, "29": {"norad_id": "39091", "name": "BRITE-A TUGSAT-1", "tle1": "1 39091U 13009F   26163.82006196  .00000162  00000-0  69818-4 0  9990", "tle2": "2 39091  98.3993 343.3639 0009016 251.2113 108.8095 14.36540476696425", "object_type": "PAYLOAD", "criticality_score": 9.0, "last_updated": "2026-06-13T11:16:06.819600+00:00", "maneuver_count": 0, "owner": "ASRA"}, "30": {"norad_id": "39087", "name": "AAUSAT3", "tle1": "1 39087U 13009B   26163.24700933  .00000615  00000-0  20894-3 0  9994", "tle2": "2 39087  98.3701 347.1536 0010482 222.3126 137.7255 14.39933834696467", "object_type": "PAYLOAD", "criticality_score": 9.0, "last_updated": "2026-06-13T11:16:06.819600+00:00", "maneuver_count": 0, "owner": "DEN"}, "57": {"norad_id": "39260", "name": "FENGYUN 3C", "tle1": "1 39260U 13052A   26163.87407727  .00000073  00000-0  58087-4 0  9993", "tle2": "2 39260  98.4985 137.9470 0015457  39.5037 320.7262 14.15754202657950", "object_type": "PAYLOAD", "criticality_score": 9.0, "last_updated": "2026-06-13T11:16:06.819600+00:00", "maneuver_count": 0, "owner": "PRC"}, "58": {"norad_id": "39090", "name": "STRAND-1", "tle1": "1 39090U 13009E   26163.25210112  .00000272  00000-0  10585-3 0  9999", "tle2": "2 39090  98.3921 343.6080 0007529 242.0462 117.9963 14.37160588696350", "object_type": "PAYLOAD", "criticality_score": 9.0, "last_updated": "2026-06-13T11:16:06.819600+00:00", "maneuver_count": 0, "owner": "UK"}, "60": {"norad_id": "38340", "name": "HORYU-2", "tle1": "1 38340U 12025D   26162.60219413  .00002864  00000-0  29547-3 0  9991", "tle2": "2 38340  98.2166 295.3107 0007857 191.6042 168.4995 14.91035772747895", "object_type": "PAYLOAD", "criticality_score": 9.0, "last_updated": "2026-06-13T11:16:06.819600+00:00", "maneuver_count": 0, "owner": "JPN"}, "117": {"norad_id": "39265", "name": "CASSIOPE", "tle1": "1 39265U 13055A   26163.83157047  .00048390 -45205-6  53048-3 0  9992", "tle2": "2 39265  80.9150  72.0085 0294374  77.0671 286.3260 15.24789163667001", "object_type": "PAYLOAD", "criticality_score": 9.0, "last_updated": "2026-06-13T11:16:06.819600+00:00", "maneuver_count": 0, "owner": "CA"}, "118": {"norad_id": "39151", "name": "NEE 01 PEGASUS", "tle1": "1 39151U 13018B   26162.37036833  .00001781  00000-0  17424-3 0  9990", "tle2": "2 39151  98.1214 306.3290 0012644 177.4473 182.6812 14.93633706709836", "object_type": "PAYLOAD", "criticality_score": 9.0, "last_updated": "2026-06-13T11:16:06.819600+00:00", "maneuver_count": 0, "owner": "ECU"}, "119": {"norad_id": "39092", "name": "BRITE-U UNIBRITE", "tle1": "1 39092U 13009G   26163.76227641  .00000180  00000-0  75967-4 0  9996", "tle2": "2 39092  98.4031 343.4175 0007956 247.1559 112.8788 14.36411745696357", "object_type": "PAYLOAD", "criticality_score": 9.0, "last_updated": "2026-06-13T11:16:06.819600+00:00", "maneuver_count": 0, "owner": "ASRA"}, "120": {"norad_id": "39086", "name": "SARAL", "tle1": "1 39086U 13009A   26163.85107012  .00000086  00000-0  47689-4 0  9993", "tle2": "2 39086  98.5556 350.4733 0000937 334.6734  25.4404 14.32854901694982", "object_type": "PAYLOAD", "criticality_score": 9.0, "last_updated": "2026-06-13T11:16:06.819600+00:00", "maneuver_count": 0, "owner": "IND"}, "121": {"norad_id": "38771", "name": "METOP-B", "tle1": "1 38771U 12049A   26163.89575281  .00000095  00000-0  63386-4 0  9999", "tle2": "2 38771  98.6505 215.4804 0002496  30.0317 330.1003 14.21431594712655", "object_type": "PAYLOAD", "criticality_score": 9.0, "last_updated": "2026-06-13T11:16:06.819600+00:00", "maneuver_count": 0, "owner": "EUME"}, "198": {"norad_id": "38761", "name": "CSSWE", "tle1": "1 38761U 12048D   26163.24121378  .00028486  00000-0  59391-3 0  9994", "tle2": "2 38761  64.6616 110.2430 0047869 175.2937 184.8662 15.44226784115639", "object_type": "PAYLOAD", "criticality_score": 9.0, "last_updated": "2026-06-13T11:16:06.819600+00:00", "maneuver_count": 0, "owner": "US"}, "201": {"norad_id": "38763", "name": "CP5", "tle1": "1 38763U 12048F   26163.22329379  .00010646  00000-0  36464-3 0  9990", "tle2": "2 38763  64.6428 168.9913 0079216 177.9064 182.2413 15.27655013116009", "object_type": "PAYLOAD", "criticality_score": 9.0, "last_updated": "2026-06-13T11:16:06.819600+00:00", "maneuver_count": 0, "owner": "US"}, "210": {"norad_id": "39152", "name": "TURKSAT 3U", "tle1": "1 39152U 13018C   26163.80169764  .00004180  00000-0  37336-3 0  9990", "tle2": "2 39152  97.7932 254.6447 0013624 113.2655 247.0002 14.96403001710438", "object_type": "PAYLOAD", "criticality_score": 9.0, "last_updated": "2026-06-13T11:16:06.819600+00:00", "maneuver_count": 0, "owner": "TURK"}, "258": {"norad_id": "39159", "name": "PROBA V", "tle1": "1 39159U 13021A   26163.83178378  .00000065  00000-0  46614-4 0  9993", "tle2": "2 39159  98.3582 142.6534 0004976 133.8058 226.3534 14.23596192680497", "object_type": "PAYLOAD", "criticality_score": 9.0, "last_updated": "2026-06-13T11:16:06.819600+00:00", "maneuver_count": 0, "owner": "ESA"}, "266": {"norad_id": "39133", "name": "AIST 2", "tle1": "1 39133U 13015D   26163.86663858  .00006337  00000-0  25017-3 0  9994", "tle2": "2 39133  64.8694 271.4590 0018906 246.8977 113.0161 15.26259732723246", "object_type": "PAYLOAD", "criticality_score": 9.0, "last_updated": "2026-06-13T11:16:06.819600+00:00", "maneuver_count": 0, "owner": "CIS"}, "373": {"norad_id": "39416", "name": "APRIZESAT 7", "tle1": "1 39416U 13066A   26163.86048177  .00000888  00000-0  93384-4 0  9993", "tle2": "2 39416  97.7708 117.1426 0034670 223.9352 135.9109 14.91555442680586", "object_type": "PAYLOAD", "criticality_score": 9.0, "last_updated": "2026-06-13T11:16:06.819600+00:00", "maneuver_count": 0, "owner": "US"}, "374": {"norad_id": "39425", "name": "APRIZESAT 8", "tle1": "1 39425U 13066K   26163.83672405  .00000941  00000-0  10788-3 0  9993", "tle2": "2 39425  97.8221 111.3653 0044593 301.3371  58.3485 14.87645103679023", "object_type": "PAYLOAD", "criticality_score": 9.0, "last_updated": "2026-06-13T11:16:06.819600+00:00", "maneuver_count": 0, "owner": "US"}, "434": {"norad_id": "38860", "name": "SJ-9A", "tle1": "1 38860U 12056A   26163.85341488  .00001197  00000-0  14421-3 0  9991", "tle2": "2 38860  97.6706 135.9617 0023964 271.9006  87.9465 14.85471597698949", "object_type": "PAYLOAD", "criticality_score": 9.0, "last_updated": "2026-06-13T11:16:06.819600+00:00", "maneuver_count": 0, "owner": "PRC"}, "471": {"norad_id": "37849", "name": "NPP", "tle1": "1 37849U 11061A   26163.82943395  .00000047  00000-0  43507-4 0  9995", "tle2": "2 37849  98.7954 104.7353 0001775  16.6889 343.4345 14.19516560757829", "object_type": "PAYLOAD", "criticality_score": 9.0, "last_updated": "2026-06-13T11:16:06.819600+00:00", "maneuver_count": 0, "owner": "US"}, "531": {"norad_id": "37875", "name": "YAOGAN 12", "tle1": "1 37875U 11066B   26163.87401259  .00005915  00000-0  22870-3 0  9990", "tle2": "2 37875  97.1152 202.6445 0008280 234.2805 125.7665 15.26550946811388", "object_type": "PAYLOAD", "criticality_score": 9.0, "last_updated": "2026-06-13T11:16:06.819600+00:00", "maneuver_count": 0, "owner": "PRC"}, "537": {"norad_id": "39227", "name": "KOMPSAT 5", "tle1": "1 39227U 13042A   26163.84298010  .00001598  00000-0  11855-3 0  9999", "tle2": "2 39227  97.6214 350.6054 0004976 131.3525 228.8130 15.04481391703205", "object_type": "PAYLOAD", "criticality_score": 9.0, "last_updated": "2026-06-13T11:16:06.819600+00:00", "maneuver_count": 0, "owner": "SKOR"}, "592": {"norad_id": "39059", "name": "COSMOS 2484", "tle1": "1 39059U 13001C   26163.87991988 -.00000033  00000-0 -31239-3 0  9997", "tle2": "2 39059  82.5023 224.5701 0027049  45.7977 314.5318 12.42938629608027", "object_type": "PAYLOAD", "criticality_score": 9.0, "last_updated": "2026-06-13T11:16:06.819600+00:00", "maneuver_count": 0, "owner": "CIS"}, "593": {"norad_id": "39249", "name": "GONETS M 05", "tle1": "1 39249U 13048A   26163.84858039  .00000060  00000-0  36002-3 0  9996", "tle2": "2 39249  82.4833 346.0884 0015908 220.3646 139.6254 12.42891786578341", "object_type": "PAYLOAD", "criticality_score": 9.0, "last_updated": "2026-06-13T11:16:06.819600+00:00", "maneuver_count": 0, "owner": "CIS"}, "594": {"norad_id": "39251", "name": "GONETS M 07", "tle1": "1 39251U 13048C   26163.89211259  .00000074  00000-0  46152-3 0  9993", "tle2": "2 39251  82.4900 348.9813 0016709 221.6426 138.3383 12.42914697578304", "object_type": "PAYLOAD", "criticality_score": 9.0, "last_updated": "2026-06-13T11:16:06.819600+00:00", "maneuver_count": 0, "owner": "CIS"}, "645": {"norad_id": "38338", "name": "KOMPSAT 3", "tle1": "1 38338U 12025B   26163.85843889  .00000396  00000-0  87840-4 0  9995", "tle2": "2 38338  98.1175 121.3931 0006519 120.3589 239.8258 14.62202690750716", "object_type": "PAYLOAD", "criticality_score": 9.0, "last_updated": "2026-06-13T11:16:06.819600+00:00", "maneuver_count": 0, "owner": "SKOR"}, "658": {"norad_id": "38251", "name": "BEIDOU 13", "tle1": "1 38251U 12018B   26163.28833892 -.00000068  00000-0  00000+0 0  9996", "tle2": "2 38251  55.6629 304.2553 0011272 276.3226  83.5311  1.86229638 95850", "object_type": "PAYLOAD", "criticality_score": 9.0, "last_updated": "2026-06-13T11:16:06.819600+00:00", "maneuver_count": 0, "owner": "PRC"}}}